[{"OBJECT_NAME":"STARLINK-30985","OBJECT_ID":"2023-186W","EPOCH":"2026-03-09T22:00:30.929760","MEAN_MOTION":15.2719302,"ECCENTRICITY":0.00016879,"INCLINATION":43.0045,"RA_OF_ASC_NODE":62.1336,"ARG_OF_PERICENTER":278.031,"MEAN_ANOMALY":82.035,"EPHEMERIS_TYPE":0,"CLASSIFICATION_TYPE":"U","NORAD_CAT_ID":58493,"ELEMENT_SET_NO":999,"REV_AT_EPOCH":12592,"BSTAR":0.0033302819,"MEAN_MOTION_DOT":0.00091437,"MEAN_MOTION_DDOT":0},{"OBJECT_NAME":"KUIPER-00209","OBJECT_ID":"2026-030N","EPOCH":"2026-03-09T14:49:43.575744","MEAN_MOTION":15.3016195,"ECCENTRICITY":0.0012191,"INCLINATION":51.8838,"RA_OF_ASC_NODE":220.0775,"ARG_OF_PERICENTER":59.1967,"MEAN_ANOMALY":301.0215,"EPHEMERIS_TYPE":0,"CLASSIFICATION_TYPE":"U","NORAD_CAT_ID":67776,"ELEMENT_SET_NO":999,"REV_AT_EPOCH":507,"BSTAR":0.0011963,"MEAN_MOTION_DOT":0.00035298,"MEAN_MOTION_DDOT":0}]
